OBJECT_NAME,OBJECT_ID,EPOCH,MEAN_MOTION,ECCENTRICITY,INCLINATION,RA_OF_ASC_NODE,ARG_OF_PERICENTER,MEAN_ANOMALY,EPHEMERIS_TYPE,CLASSIFICATION_TYPE,NORAD_CAT_ID,ELEMENT_SET_NO,REV_AT_EPOCH,BSTAR,MEAN_MOTION_DOT,MEAN_MOTION_DDOT
SPACEMOBILE-004,2024-163E,2026-07-12T09:38:01.727232,15.20795560,.0006853,52.9682,192.9673,216.7757,143.2768,0,U,61049,999,10160,.58302E-3,.12717E-3,0
CZ-8A R/B,2025-231K,2026-07-14T13:58:58.221984,14.30162108,.01165613,50.0043,282.7651,320.4534,38.7920,0,U,66004,999,3886,.36054838E-4,-.63E-6,0
SZ-21 MODULE,2025-246C,2026-07-14T05:55:25.983264,15.78746533,.00080868,41.4712,138.4953,214.4776,145.5545,0,U,66515,999,3801,.19572685E-3,.35282E-3,0
SPACEMOBILE-006,2025-309A,2026-07-14T08:31:40.410912,15.18652187,.00101784,52.9935,207.1822,212.4448,147.5920,0,U,67232,999,3072,.42569365E-4,.571E-5,0
SPACEMOBILE-008,2026-139A,2026-07-14T13:23:52.309248,15.12801501,.00050505,52.9947,138.2992,54.8997,305.2467,0,U,69589,999,412,.124774E-4,-.8E-6,0
SPACEMOBILE-009,2026-139B,2026-07-14T13:26:37.988160,15.12694817,.00052925,52.9938,138.3057,50.8296,309.3164,0,U,69590,999,412,.1484639E-4,-.39E-6,0
SPACEMOBILE-010,2026-139C,2026-07-14T13:31:00.865344,15.12526901,.00052199,52.9945,138.3273,42.8328,317.3069,0,U,69591,999,413,.23069979E-4,.106E-5,0
